OBJECT_NAME,OBJECT_ID,EPOCH,MEAN_MOTION,ECCENTRICITY,INCLINATION,RA_OF_ASC_NODE,ARG_OF_PERICENTER,MEAN_ANOMALY,EPHEMERIS_TYPE,CLASSIFICATION_TYPE,NORAD_CAT_ID,ELEMENT_SET_NO,REV_AT_EPOCH,BSTAR,MEAN_MOTION_DOT,MEAN_MOTION_DDOT
EYESAT A (AO-27),1993-061C,2026-07-19T03:57:13.631904,14.30949715,.00085393,98.6864,267.5640,14.7402,345.4028,0,U,22825,999,71157,.27887679E-4,.29E-6,0
ITAMSAT (IO-26),1993-061D,2026-07-19T09:56:28.408416,14.31377441,.00087001,98.6814,267.7342,356.7861,3.3264,0,U,22826,999,71192,.25971926E-4,.24E-6,0
RADIO ROSTO (RS15),1994-085A,2026-07-19T13:49:42.507552,11.27583575,.01570882,64.8143,250.8352,357.9036,2.1213,0,U,23439,999,29955,.21513995E-3,-.35E-6,0
JAS-2 (FO-29),1996-046B,2026-07-19T11:19:27.344928,13.53275816,.0350156,98.5218,44.9182,12.8574,348.1218,0,U,24278,999,47753,-.8158902E-5,-.43E-6,0
FORTE,1997-047A,2026-07-19T10:58:44.980320,14.27956461,.00242483,69.9545,301.1300,238.1961,121.6800,0,U,24920,999,50329,.42099026E-4,.47E-6,0
TECHSAT 1B (GO-32),1998-043D,2026-07-19T10:42:44.197632,14.24433824,.00022894,99.0088,194.0215,108.4800,251.6627,0,U,25397,999,45592,.20729446E-4,.1E-7,0
ISS (ZARYA),1998-067A,2026-07-19T06:00:13.204512,15.49048208,.0006817,51.6315,141.4207,313.5383,46.5039,0,U,25544,999,57672,.82726347E-4,.4118E-4,0
IMAGE,2000-017A,2026-07-10T09:33:22.635360,1.68666826,.74160542,94.2468,315.6762,285.1805,9.7435,0,U,26113,999,16189,0,-.42E-6,0
CLUSTER II-FM7 (SAMBA),2000-041A,2026-07-20T14:26:35.841408,0.44850614,.90917139,149.8020,56.9135,274.4938,359.4450,0,U,26410,999,2046,0,.10308E-3,-.304154E-5
CLUSTER II-FM8 (TANGO),2000-045B,2026-07-18T22:53:05.745408,0.44423357,.90956484,150.0091,57.8386,275.2395,2.0585,0,U,26464,999,2045,0,.14907E-3,-.8976714E-5
ODIN,2001-007A,2026-07-19T07:58:31.999584,15.91901794,.00049841,97.3680,243.6758,151.8712,208.2832,0,U,26702,999,39448,.91388798E-3,.298908E-2,.35582702E-4
OMNI-M1,2001-026A,2026-07-15T12:15:20.524608,3.92402085,.00135289,44.8240,238.7352,57.8922,302.2996,0,U,26857,999,20668,0,.4E-7,0
PCSAT (NO-44),2001-043C,2026-07-19T06:54:49.665312,14.31965883,.00058705,67.0498,161.2434,266.8644,93.1786,0,U,26931,999,29504,.40156995E-4,.25E-6,0
PROBA-1,2001-049B,2026-07-19T14:14:15.973152,15.07622166,.00552886,97.9602,210.2605,15.0472,345.2383,0,U,26958,999,34850,.33792005E-4,.459E-5,0
SAUDISAT 1C (SO-50),2002-058C,2026-07-19T12:31:52.088160,14.83102948,.00743947,64.5520,28.9362,256.4806,102.8004,0,U,27607,999,26925,.59686677E-4,.353E-5,0
CORIOLIS,2003-001A,2026-07-19T11:16:55.529760,14.19952540,.00150832,98.7136,206.8630,117.8062,242.4645,0,U,27640,999,21880,.35071484E-4,.31E-6,0
CUTE-1 (CO-55),2003-031E,2026-07-19T11:47:49.065504,14.24353085,.00108686,98.6745,208.6450,91.6414,268.6010,0,U,27844,999,19627,.70117916E-4,.118E-5,0
CUBESAT XI-IV (CO-57),2003-031J,2026-07-19T11:54:35.074656,14.23635874,.00106546,98.6776,208.3362,108.0973,252.1367,0,U,27848,999,19597,.61251528E-4,.96E-6,0
MOZHAETS 4 (RS22),2003-042A,2026-07-19T14:37:09.526656,14.73516906,.00115769,98.3478,25.8857,159.4525,291.6346,0,U,27939,999,22032,.2655403E-5,-.37E-6,0
